start=new Date('2022-01-30T00:00:00.000Z').valueOf();
sats=[{"SEMIMAJOR_AXIS":"6925.433","SITE":"AFETR","OBJECT_NAME":"STARLINK-2083","REF_FRAME":"TEME","GP_ID":"194912632","LAUNCH_DATE":"2021-02-16","BSTAR":"0.00288420000000","FILE":"3287083","TLE_LINE1":"1 47676U 21012BJ  22029.91667824  .00042910  00000-0  28842-2 0  9996","OBJECT_TYPE":"PAYLOAD","MEAN_MOTION":"15.06372297","OBJECT_ID":"2021-012BJ","ELEMENT_SET_NO":"999","TLE_LINE2":"2 47676  53.0547 194.3563 0002373  72.2634  26.2080 15.06372297  3605","EPHEMERIS_TYPE":"0","NORAD_CAT_ID":"47676","PERIOD":"95.594","MEAN_ANOMALY":"26.2080","DECAY_DATE":null,"MEAN_ELEMENT_THEORY":"SGP4","PERIAPSIS":"545.655","INCLINATION":"53.0547","MEAN_MOTION_DDOT":"0.0000000000000","COUNTRY_CODE":"US","MEAN_MOTION_DOT":"0.00042910","ECCENTRICITY":"0.00023730","APOAPSIS":"548.942","CLASSIFICATION_TYPE":"U","EPOCH":"2022-01-29T22:00:00.999936","ARG_OF_PERICENTER":"72.2634","TIME_SYSTEM":"UTC","REV_AT_EPOCH":"360","RCS_SIZE":"LARGE","RA_OF_ASC_NODE":"194.3563","CENTER_NAME":"EARTH"},{"COUNTRY_CODE":"US","MEAN_MOTION_DOT":"0.00001446","APOAPSIS":"548.436","ECCENTRICITY":"0.00017720","CLASSIFICATION_TYPE":"U","EPOCH":"2022-01-29T19:46:24.993696","ARG_OF_PERICENTER":"59.5019","TIME_SYSTEM":"UTC","REV_AT_EPOCH":"5391","RCS_SIZE":"LARGE","RA_OF_ASC_NODE":"324.7867","CENTER_NAME":"EARTH","SEMIMAJOR_AXIS":"6925.344","SITE":"AFETR","OBJECT_NAME":"STARLINK-2090","REF_FRAME":"TEME","GP_ID":"194912883","LAUNCH_DATE":"2021-02-16","FILE":"3287083","BSTAR":"0.00011596000000","TLE_LINE1":"1 47677U 21012BK  22029.82390039  .00001446  00000-0  11596-3 0  9996","MEAN_MOTION":"15.06401509","OBJECT_TYPE":"PAYLOAD","OBJECT_ID":"2021-012BK","ELEMENT_SET_NO":"999","EPHEMERIS_TYPE":"0","TLE_LINE2":"2 47677  53.0570 324.7867 0001772  59.5019 300.6145 15.06401509 53914","NORAD_CAT_ID":"47677","PERIOD":"95.592","MEAN_ANOMALY":"300.6145","DECAY_DATE":null,"PERIAPSIS":"545.982","MEAN_ELEMENT_THEORY":"SGP4","INCLINATION":"53.0570","MEAN_MOTION_DDOT":"0.0000000000000"},{"OBJECT_ID":"2021-012BM","ELEMENT_SET_NO":"999","BSTAR":"-0.00000676910000","FILE":"3286921","TLE_LINE1":"1 47679U 21012BM  22029.52071773 -.00000383  00000-0 -67691-5 0  9996","MEAN_MOTION":"15.06400539","OBJECT_TYPE":"PAYLOAD","GP_ID":"194888503","LAUNCH_DATE":"2021-02-16","SITE":"AFETR","OBJECT_NAME":"STARLINK-2095","SEMIMAJOR_AXIS":"6925.347","REF_FRAME":"TEME","MEAN_MOTION_DDOT":"0.0000000000000","PERIOD":"95.592","MEAN_ANOMALY":"294.1843","DECAY_DATE":null,"PERIAPSIS":"545.860","MEAN_ELEMENT_THEORY":"SGP4","INCLINATION":"53.0562","TLE_LINE2":"2 47679  53.0562 326.1513 0001952  65.9350 294.1843 15.06400539 53363","EPHEMERIS_TYPE":"0","NORAD_CAT_ID":"47679","EPOCH":"2022-01-29T12:29:50.011872","ECCENTRICITY":"0.00019520","APOAPSIS":"548.564","CLASSIFICATION_TYPE":"U","MEAN_MOTION_DOT":"-0.00000383","COUNTRY_CODE":"US","RA_OF_ASC_NODE":"326.1513","CENTER_NAME":"EARTH","ARG_OF_PERICENTER":"65.9350","TIME_SYSTEM":"UTC","REV_AT_EPOCH":"5336","RCS_SIZE":"LARGE"},{"PERIAPSIS":"546.179","MEAN_ELEMENT_THEORY":"SGP4","INCLINATION":"53.0540","MEAN_ANOMALY":"291.8117","PERIOD":"95.593","DECAY_DATE":null,"MEAN_MOTION_DDOT":"0.0000000000000","TLE_LINE2":"2 47722  53.0540  89.5742 0001521  68.3034 291.8117 15.06393759 51934","EPHEMERIS_TYPE":"0","NORAD_CAT_ID":"47722","TLE_LINE1":"1 47722U 21017A   22029.87226299  .00000844  00000-0  75582-4 0  9990","OBJECT_TYPE":"PAYLOAD","MEAN_MOTION":"15.06393759","FILE":"3287083","BSTAR":"0.00007558200000","ELEMENT_SET_NO":"999","OBJECT_ID":"2021-017A","REF_FRAME":"TEME","SITE":"AFETR","SEMIMAJOR_AXIS":"6925.368","OBJECT_NAME":"STARLINK-2068","GP_ID":"194914389","LAUNCH_DATE":"2021-03-04","CENTER_NAME":"EARTH","RA_OF_ASC_NODE":"89.5742","REV_AT_EPOCH":"5193","RCS_SIZE":"LARGE","ARG_OF_PERICENTER":"68.3034","TIME_SYSTEM":"UTC","CLASSIFICATION_TYPE":"U","ECCENTRICITY":"0.00015210","APOAPSIS":"548.286","EPOCH":"2022-01-29T20:56:03.522336","COUNTRY_CODE":"US","MEAN_MOTION_DOT":"0.00000844"},{"BSTAR":"0.00004079900000","FILE":"3287083","OBJECT_TYPE":"PAYLOAD","MEAN_MOTION":"15.06395241","TLE_LINE1":"1 47723U 21017B   22029.70411625  .00000326  00000-0  40799-4 0  9999","OBJECT_ID":"2021-017B","ELEMENT_SET_NO":"999","REF_FRAME":"TEME","SITE":"AFETR","SEMIMAJOR_AXIS":"6925.363","OBJECT_NAME":"STARLINK-2107","LAUNCH_DATE":"2021-03-04","GP_ID":"194912637","DECAY_DATE":null,"PERIOD":"95.592","MEAN_ANOMALY":"275.0986","INCLINATION":"53.0583","PERIAPSIS":"546.298","MEAN_ELEMENT_THEORY":"SGP4","MEAN_MOTION_DDOT":"0.0000000000000","NORAD_CAT_ID":"47723","EPHEMERIS_TYPE":"0","TLE_LINE2":"2 47723  53.0583  25.3102 0001343  85.0156 275.0986 15.06395241 52783","ECCENTRICITY":"0.00013430","APOAPSIS":"548.158","CLASSIFICATION_TYPE":"U","EPOCH":"2022-01-29T16:53:55.644000","COUNTRY_CODE":"US","MEAN_MOTION_DOT":"0.00000326","RA_OF_ASC_NODE":"25.3102","CENTER_NAME":"EARTH","TIME_SYSTEM":"UTC","ARG_OF_PERICENTER":"85.0156","RCS_SIZE":"LARGE","REV_AT_EPOCH":"5278"},{"ARG_OF_PERICENTER":"75.4543","TIME_SYSTEM":"UTC","REV_AT_EPOCH":"5277","RCS_SIZE":"LARGE","RA_OF_ASC_NODE":"24.5481","CENTER_NAME":"EARTH","COUNTRY_CODE":"US","MEAN_MOTION_DOT":"0.00000266","ECCENTRICITY":"0.00013170","APOAPSIS":"548.131","CLASSIFICATION_TYPE":"U","EPOCH":"2022-01-29T20:58:05.246112","EPHEMERIS_TYPE":"0","TLE_LINE2":"2 47724  53.0570  24.5481 0001317  75.4543 284.6592 15.06398302 52774","NORAD_CAT_ID":"47724","PERIOD":"95.592","MEAN_ANOMALY":"284.6592","DECAY_DATE":null,"MEAN_ELEMENT_THEORY":"SGP4","PERIAPSIS":"546.307","INCLINATION":"53.0570","MEAN_MOTION_DDOT":"0.0000000000000","SITE":"AFETR","SEMIMAJOR_AXIS":"6925.354","REF_FRAME":"TEME","OBJECT_NAME":"STARLINK-2116","GP_ID":"194912888","LAUNCH_DATE":"2021-03-04","BSTAR":"0.00003675700000","FILE":"3287083","TLE_LINE1":"1 47724U 21017C   22029.87367183  .00000266  00000-0  36757-4 0  9999","OBJECT_TYPE":"PAYLOAD","MEAN_MOTION":"15.06398302","OBJECT_ID":"2021-017C","ELEMENT_SET_NO":"999"},{"TLE_LINE2":"2 47725  53.0557  94.4115 0001427  64.2416 295.8720 15.06416608 51818","EPHEMERIS_TYPE":"0","NORAD_CAT_ID":"47725","PERIOD":"95.591","MEAN_ANOMALY":"295.8720","DECAY_DATE":null,"PERIAPSIS":"546.174","MEAN_ELEMENT_THEORY":"SGP4","INCLINATION":"53.0557","MEAN_MOTION_DDOT":"0.0000000000000","SITE":"AFETR","OBJECT_NAME":"STARLINK-2125","SEMIMAJOR_AXIS":"6925.298","REF_FRAME":"TEME","GP_ID":"194914139","LAUNCH_DATE":"2021-03-04","BSTAR":"0.00060398000000","FILE":"3287083","TLE_LINE1":"1 47725U 21017D   22029.90776387  .00008730  00000-0  60398-3 0  9995","MEAN_MOTION":"15.06416608","OBJECT_TYPE":"PAYLOAD","OBJECT_ID":"2021-017D","ELEMENT_SET_NO":"999","ARG_OF_PERICENTER":"64.2416","TIME_SYSTEM":"UTC","REV_AT_EPOCH":"5181","RCS_SIZE":"LARGE","RA_OF_ASC_NODE":"94.4115","CENTER_NAME":"EARTH","COUNTRY_CODE":"US","MEAN_MOTION_DOT":"0.00008730","APOAPSIS":"548.151","ECCENTRICITY":"0.00014270","CLASSIFICATION_TYPE":"U","EPOCH":"2022-01-29T21:47:10.798368"},{"NORAD_CAT_ID":"47726","TLE_LINE2":"2 47726  53.0561  94.4704 0001388  75.4918 284.6225 15.06397460 51804","EPHEMERIS_TYPE":"0","INCLINATION":"53.0561","PERIAPSIS":"546.260","MEAN_ELEMENT_THEORY":"SGP4","DECAY_DATE":null,"PERIOD":"95.592","MEAN_ANOMALY":"284.6225","MEAN_MOTION_DDOT":"0.0000000000000","SEMIMAJOR_AXIS":"6925.356","SITE":"AFETR","OBJECT_NAME":"STARLINK-2126","REF_FRAME":"TEME","LAUNCH_DATE":"2021-03-04","GP_ID":"194913890","MEAN_MOTION":"15.06397460","OBJECT_TYPE":"PAYLOAD","TLE_LINE1":"1 47726U 21017E   22029.89301547 -.00000042  00000-0  16081-4 0  9996","BSTAR":"0.00001608100000","FILE":"3287083","ELEMENT_SET_NO":"999","OBJECT_ID":"2021-017E","RCS_SIZE":"LARGE","REV_AT_EPOCH":"5180","TIME_SYSTEM":"UTC","ARG_OF_PERICENTER":"75.4918","CENTER_NAME":"EARTH","RA_OF_ASC_NODE":"94.4704","COUNTRY_CODE":"US","MEAN_MOTION_DOT":"-0.00000042","CLASSIFICATION_TYPE":"U","APOAPSIS":"548.183","ECCENTRICITY":"0.00013880","EPOCH":"2022-01-29T21:25:56.536608"},{"TLE_LINE2":"2 47727  53.0585  15.5739 0001938  55.0227 305.0943 15.06399143 52920","EPHEMERIS_TYPE":"0","NORAD_CAT_ID":"47727","MEAN_MOTION_DDOT":"0.0000000000000","MEAN_ANOMALY":"305.0943","PERIOD":"95.592","DECAY_DATE":null,"PERIAPSIS":"545.874","MEAN_ELEMENT_THEORY":"SGP4","INCLINATION":"53.0585","GP_ID":"194913137","LAUNCH_DATE":"2021-03-04","REF_FRAME":"TEME","SITE":"AFETR","SEMIMAJOR_AXIS":"6925.351","OBJECT_NAME":"STARLINK-2129","OBJECT_ID":"2021-017F","ELEMENT_SET_NO":"999","BSTAR":"-0.00004645800000","FILE":"3287083","TLE_LINE1":"1 47727U 21017F   22029.64511395 -.00000974  00000-0 -46458-4 0  9990","OBJECT_TYPE":"PAYLOAD","MEAN_MOTION":"15.06399143","ARG_OF_PERICENTER":"55.0227","TIME_SYSTEM":"UTC","REV_AT_EPOCH":"5292","RCS_SIZE":"LARGE","RA_OF_ASC_NODE":"15.5739","CENTER_NAME":"EARTH","MEAN_MOTION_DOT":"-0.00000974","COUNTRY_CODE":"US","EPOCH":"2022-01-29T15:28:57.845280","ECCENTRICITY":"0.00019380","APOAPSIS":"548.558","CLASSIFICATION_TYPE":"U"},{"LAUNCH_DATE":"2021-03-04","GP_ID":"194913388","SITE":"AFETR","SEMIMAJOR_AXIS":"6925.319","OBJECT_NAME":"STARLINK-2131","REF_FRAME":"TEME","OBJECT_ID":"2021-017G","ELEMENT_SET_NO":"999","FILE":"3287083","BSTAR":"-0.00004429500000","OBJECT_TYPE":"PAYLOAD","MEAN_MOTION":"15.06409718","TLE_LINE1":"1 47728U 21017G   22029.86721160 -.00000941  00000-0 -44295-4 0  9999","NORAD_CAT_ID":"47728","TLE_LINE2":"2 47728  53.0546  94.5918 0001387  65.1197 294.9936 15.06409718 51860","EPHEMERIS_TYPE":"0","MEAN_MOTION_DDOT":"0.0000000000000","DECAY_DATE":null,"PERIOD":"95.592","MEAN_ANOMALY":"294.9936","INCLINATION":"53.0546","PERIAPSIS":"546.223","MEAN_ELEMENT_THEORY":"SGP4","MEAN_MOTION_DOT":"-0.00000941","COUNTRY_CODE":"US","EPOCH":"2022-01-29T20:48:47.082240","ECCENTRICITY":"0.00013870","APOAPSIS":"548.144","CLASSIFICATION_TYPE":"U","TIME_SYSTEM":"UTC","ARG_OF_PERICENTER":"65.1197","RCS_SIZE":"LARGE","REV_AT_EPOCH":"5186","RA_OF_ASC_NODE":"94.5918","CENTER_NAME":"EARTH"}];
